{"fetched_at":"2026-07-08T07:03:38.157Z","source":"https://celestrak.org/NORAD/elements/gp.php?GROUP=spire&FORMAT=JSON","constellation":"spire","records":[{"OBJECT_NAME":"LEMUR-2-VALHALLA","OBJECT_ID":"2024-022B","EPOCH":"2026-07-07T00:33:46.291680","CLASSIFICATION_TYPE":"U","MEAN_MOTION":15.40309483,"ECCENTRICITY":0.0010016,"INCLINATION":97.4094,"RA_OF_ASC_NODE":38.2595,"ARG_OF_PERICENTER":51.0671,"MEAN_ANOMALY":309.1466,"EPHEMERIS_TYPE":0,"NORAD_CAT_ID":58900,"ELEMENT_SET_NO":999,"REV_AT_EPOCH":13532,"BSTAR":0.00029263256,"MEAN_MOTION_DOT":0.00011733,"MEAN_MOTION_DDOT":0},{"OBJECT_NAME":"LEMUR-2-CAEL","OBJECT_ID":"2024-022E","EPOCH":"2026-07-07T01:56:52.108224","CLASSIFICATION_TYPE":"U","MEAN_MOTION":15.41661151,"ECCENTRICITY":0.00079789,"INCLINATION":97.4077,"RA_OF_ASC_NODE":39.2893,"ARG_OF_PERICENTER":37.397,"MEAN_ANOMALY":322.7831,"EPHEMERIS_TYPE":0,"NORAD_CAT_ID":58903,"ELEMENT_SET_NO":999,"REV_AT_EPOCH":13540,"BSTAR":0.00031039849,"MEAN_MOTION_DOT":0.00013015,"MEAN_MOTION_DDOT":0},{"OBJECT_NAME":"LEMUR-2-JOHNNYTRUONG","OBJECT_ID":"2024-043BA","EPOCH":"2026-07-07T09:41:37.749696","CLASSIFICATION_TYPE":"U","MEAN_MOTION":15.62091018,"ECCENTRICITY":0.00043587,"INCLINATION":97.5392,"RA_OF_ASC_NODE":341.3839,"ARG_OF_PERICENTER":116.1045,"MEAN_ANOMALY":244.0662,"EPHEMERIS_TYPE":0,"NORAD_CAT_ID":59146,"ELEMENT_SET_NO":999,"REV_AT_EPOCH":13119,"BSTAR":0.00038548576,"MEAN_MOTION_DOT":0.00033713,"MEAN_MOTION_DDOT":0},{"OBJECT_NAME":"LEMUR-2-TOMATOKECHUP","OBJECT_ID":"2024-149D","EPOCH":"2026-07-07T18:07:55.111008","CLASSIFICATION_TYPE":"U","MEAN_MOTION":15.36476705,"ECCENTRICITY":0.0002964,"INCLINATION":97.3789,"RA_OF_ASC_NODE":270.8599,"ARG_OF_PERICENTER":136.014,"MEAN_ANOMALY":224.1341,"EPHEMERIS_TYPE":0,"NORAD_CAT_ID":60471,"ELEMENT_SET_NO":999,"REV_AT_EPOCH":10532,"BSTAR":0.00020696,"MEAN_MOTION_DOT":0.00007285,"MEAN_MOTION_DDOT":0},{"OBJECT_NAME":"LEMUR-2-STELLA","OBJECT_ID":"2024-149BT","EPOCH":"2026-07-07T17:30:20.178144","CLASSIFICATION_TYPE":"U","MEAN_MOTION":15.12265521,"ECCENTRICITY":0.0001085,"INCLINATION":97.6725,"RA_OF_ASC_NODE":271.2795,"ARG_OF_PERICENTER":110.829,"MEAN_ANOMALY":249.3056,"EPHEMERIS_TYPE":0,"NORAD_CAT_ID":60533,"ELEMENT_SET_NO":999,"REV_AT_EPOCH":10360,"BSTAR":0.00040628,"MEAN_MOTION_DOT":0.00006963,"MEAN_MOTION_DDOT":0},{"OBJECT_NAME":"LEMUR-2-MARHISYAM","OBJECT_ID":"2024-149BW","EPOCH":"2026-07-07T17:13:03.569088","CLASSIFICATION_TYPE":"U","MEAN_MOTION":15.11678961,"ECCENTRICITY":0.0002763,"INCLINATION":97.6872,"RA_OF_ASC_NODE":271.7371,"ARG_OF_PERICENTER":80.2006,"MEAN_ANOMALY":279.9535,"EPHEMERIS_TYPE":0,"NORAD_CAT_ID":60536,"ELEMENT_SET_NO":999,"REV_AT_EPOCH":10358,"BSTAR":0.00045283,"MEAN_MOTION_DOT":0.00007643,"MEAN_MOTION_DDOT":0},{"OBJECT_NAME":"LEMUR-2-AHMED-ASRAR","OBJECT_ID":"2024-149DN","EPOCH":"2026-07-07T19:08:29.073408","CLASSIFICATION_TYPE":"U","MEAN_MOTION":15.13196677,"ECCENTRICITY":0.0000625,"INCLINATION":97.6994,"RA_OF_ASC_NODE":273.9913,"ARG_OF_PERICENTER":254.8296,"MEAN_ANOMALY":105.2865,"EPHEMERIS_TYPE":0,"NORAD_CAT_ID":60576,"ELEMENT_SET_NO":999,"REV_AT_EPOCH":10368,"BSTAR":0.0004517,"MEAN_MOTION_DOT":0.00007953,"MEAN_MOTION_DDOT":0},{"OBJECT_NAME":"LEMUR-2-LLOYD","OBJECT_ID":"2024-149DP","EPOCH":"2026-07-07T11:02:38.252544","CLASSIFICATION_TYPE":"U","MEAN_MOTION":15.09650711,"ECCENTRICITY":0.00049101,"INCLINATION":97.6734,"RA_OF_ASC_NODE":269.6046,"ARG_OF_PERICENTER":90.2019,"MEAN_ANOMALY":269.9772,"EPHEMERIS_TYPE":0,"NORAD_CAT_ID":60577,"ELEMENT_SET_NO":999,"REV_AT_EPOCH":10345,"BSTAR":0.00040278112,"MEAN_MOTION_DOT":0.0000642,"MEAN_MOTION_DDOT":0},{"OBJECT_NAME":"LEMUR-2-SQUIRRELCOMM","OBJECT_ID":"2024-149DQ","EPOCH":"2026-07-07T04:07:02.551584","CLASSIFICATION_TYPE":"U","MEAN_MOTION":15.07390844,"ECCENTRICITY":0.00048314,"INCLINATION":97.6704,"RA_OF_ASC_NODE":269.0219,"ARG_OF_PERICENTER":356.7461,"MEAN_ANOMALY":3.3734,"EPHEMERIS_TYPE":0,"NORAD_CAT_ID":60578,"ELEMENT_SET_NO":999,"REV_AT_EPOCH":10341,"BSTAR":0.00032133495,"MEAN_MOTION_DOT":0.000048,"MEAN_MOTION_DDOT":0},{"OBJECT_NAME":"LEMUR-2-SIERRINI","OBJECT_ID":"2024-149DR","EPOCH":"2026-07-07T17:52:44.011776","CLASSIFICATION_TYPE":"U","MEAN_MOTION":15.11407209,"ECCENTRICITY":0.0006586,"INCLINATION":97.6835,"RA_OF_ASC_NODE":271.4333,"ARG_OF_PERICENTER":109.6866,"MEAN_ANOMALY":250.5075,"EPHEMERIS_TYPE":0,"NORAD_CAT_ID":60579,"ELEMENT_SET_NO":999,"REV_AT_EPOCH":10356,"BSTAR":0.0004029,"MEAN_MOTION_DOT":0.00006743,"MEAN_MOTION_DDOT":0},{"OBJECT_NAME":"LEMUR-2-WILSON","OBJECT_ID":"2025-009CP","EPOCH":"2026-07-07T04:07:02.604288","CLASSIFICATION_TYPE":"U","MEAN_MOTION":14.9525805,"ECCENTRICITY":0.00025989,"INCLINATION":97.7021,"RA_OF_ASC_NODE":266.2859,"ARG_OF_PERICENTER":5.7645,"MEAN_ANOMALY":354.3605,"EPHEMERIS_TYPE":0,"NORAD_CAT_ID":62694,"ELEMENT_SET_NO":999,"REV_AT_EPOCH":8034,"BSTAR":0.00023207035,"MEAN_MOTION_DOT":0.00002497,"MEAN_MOTION_DDOT":0},{"OBJECT_NAME":"LEMUR-2-STAR-FOX","OBJECT_ID":"2025-009CR","EPOCH":"2026-07-07T17:39:58.580352","CLASSIFICATION_TYPE":"U","MEAN_MOTION":15.02784369,"ECCENTRICITY":0.0003327,"INCLINATION":97.6925,"RA_OF_ASC_NODE":270.1988,"ARG_OF_PERICENTER":67.8179,"MEAN_ANOMALY":292.3399,"EPHEMERIS_TYPE":0,"NORAD_CAT_ID":62696,"ELEMENT_SET_NO":999,"REV_AT_EPOCH":8064,"BSTAR":0.00030359,"MEAN_MOTION_DOT":0.00004001,"MEAN_MOTION_DDOT":0},{"OBJECT_NAME":"LEMUR-2-ARIANNA","OBJECT_ID":"2025-009CU","EPOCH":"2026-07-07T17:37:46.255296","CLASSIFICATION_TYPE":"U","MEAN_MOTION":15.02783669,"ECCENTRICITY":0.0003665,"INCLINATION":97.6863,"RA_OF_ASC_NODE":269.9554,"ARG_OF_PERICENTER":73.039,"MEAN_ANOMALY":287.1237,"EPHEMERIS_TYPE":0,"NORAD_CAT_ID":62699,"ELEMENT_SET_NO":999,"REV_AT_EPOCH":8064,"BSTAR":0.00031804,"MEAN_MOTION_DOT":0.00004195,"MEAN_MOTION_DDOT":0},{"OBJECT_NAME":"LEMUR-2-ALISIA","OBJECT_ID":"2025-009DB","EPOCH":"2026-07-07T18:36:09.136800","CLASSIFICATION_TYPE":"U","MEAN_MOTION":15.03098125,"ECCENTRICITY":0.0003474,"INCLINATION":97.6954,"RA_OF_ASC_NODE":270.8056,"ARG_OF_PERICENTER":153.3785,"MEAN_ANOMALY":206.7619,"EPHEMERIS_TYPE":0,"NORAD_CAT_ID":62706,"ELEMENT_SET_NO":999,"REV_AT_EPOCH":10325,"BSTAR":0.00043504,"MEAN_MOTION_DOT":0.0000581,"MEAN_MOTION_DDOT":0},{"OBJECT_NAME":"LEMUR-2-ROUNDTRIPPER","OBJECT_ID":"2025-009DG","EPOCH":"2026-07-07T04:28:56.781984","CLASSIFICATION_TYPE":"U","MEAN_MOTION":15.04138808,"ECCENTRICITY":0.00044576,"INCLINATION":97.7223,"RA_OF_ASC_NODE":270.8397,"ARG_OF_PERICENTER":82.769,"MEAN_ANOMALY":277.4043,"EPHEMERIS_TYPE":0,"NORAD_CAT_ID":62711,"ELEMENT_SET_NO":999,"REV_AT_EPOCH":8063,"BSTAR":0.00048361614,"MEAN_MOTION_DOT":0.00006648,"MEAN_MOTION_DDOT":0},{"OBJECT_NAME":"LEMUR-2-MYNAMEISJEFF","OBJECT_ID":"2025-009DH","EPOCH":"2026-07-07T17:13:04.300032","CLASSIFICATION_TYPE":"U","MEAN_MOTION":15.04137151,"ECCENTRICITY":0.0003591,"INCLINATION":97.7279,"RA_OF_ASC_NODE":271.7629,"ARG_OF_PERICENTER":115.0879,"MEAN_ANOMALY":245.0719,"EPHEMERIS_TYPE":0,"NORAD_CAT_ID":62712,"ELEMENT_SET_NO":999,"REV_AT_EPOCH":8071,"BSTAR":0.00044337,"MEAN_MOTION_DOT":0.00006089,"MEAN_MOTION_DDOT":0}]}
